{
    "links": {
        "self": "http://www.neowsapp.com/rest/v1/neo/3878609?api_key=iIulBulltgU6a56xZRHN4H3l9WmuAYTsLGpBGhQ2"
    },
    "id": "3878609",
    "neo_reference_id": "3878609",
    "name": "(2019 TP4)",
    "designation": "2019 TP4",
    "nasa_jpl_url": "http://ssd.jpl.nasa.gov/sbdb.cgi?sstr=3878609",
    "absolute_magnitude_h": 26.4,
    "estimated_diameter": {
        "kilometers": {
            "estimated_diameter_min": 0.0139493823,
            "estimated_diameter_max": 0.0311917671
        },
        "meters": {
            "estimated_diameter_min": 13.9493822934,
            "estimated_diameter_max": 31.1917670523
        },
        "miles": {
            "estimated_diameter_min": 0.0086677416,
            "estimated_diameter_max": 0.0193816595
        },
        "feet": {
            "estimated_diameter_min": 45.7656914036,
            "estimated_diameter_max": 102.3351970157
        }
    },
    "is_potentially_hazardous_asteroid": false,
    "close_approach_data": [
        {
            "close_approach_date": "2015-12-16",
            "close_approach_date_full": "2015-Dec-16 21:29",
            "epoch_date_close_approach": 1450301340000,
            "relative_velocity": {
                "kilometers_per_second": "4.0633472852",
                "kilometers_per_hour": "14628.0502267171",
                "miles_per_hour": "9089.3015422621"
            },
            "miss_distance": {
                "astronomical": "0.0506799249",
                "lunar": "19.7144907861",
                "kilometers": "7581608.816799963",
                "miles": "4710993.2670989694"
            },
            "orbiting_body": "Mars"
        },
        {
            "close_approach_date": "2016-06-05",
            "close_approach_date_full": "2016-Jun-05 10:57",
            "epoch_date_close_approach": 1465124220000,
            "relative_velocity": {
                "kilometers_per_second": "16.0660990716",
                "kilometers_per_hour": "57837.9566577913",
                "miles_per_hour": "35938.2570132815"
            },
            "miss_distance": {
                "astronomical": "0.3751519591",
                "lunar": "145.9341120899",
                "kilometers": "56121934.007687117",
                "miles": "34872552.7306195346"
            },
            "orbiting_body": "Earth"
        },
        {
            "close_approach_date": "2016-12-01",
            "close_approach_date_full": "2016-Dec-01 16:44",
            "epoch_date_close_approach": 1480610640000,
            "relative_velocity": {
                "kilometers_per_second": "6.8036122108",
                "kilometers_per_hour": "24493.0039589512",
                "miles_per_hour": "15219.0001543827"
            },
            "miss_distance": {
                "astronomical": "0.4774215398",
                "lunar": "185.7169789822",
                "kilometers": "71421245.446200226",
                "miles": "44379104.0338700788"
            },
            "orbiting_body": "Earth"
        },
        {
            "close_approach_date": "2019-09-24",
            "close_approach_date_full": "2019-Sep-24 05:15",
            "epoch_date_close_approach": 1569302100000,
            "relative_velocity": {
                "kilometers_per_second": "6.8139110743",
                "kilometers_per_hour": "24530.0798675375",
                "miles_per_hour": "15242.0376821374"
            },
            "miss_distance": {
                "astronomical": "0.0318260456",
                "lunar": "12.3803317384",
                "kilometers": "4761108.632282872",
                "miles": "2958415.7205407536"
            },
            "orbiting_body": "Earth"
        }
    ],
    "orbital_data": {
        "orbit_id": "1",
        "orbit_determination_date": "2019-10-09 10:12:07",
        "first_observation_date": "2019-10-08",
        "last_observation_date": "2019-10-09",
        "data_arc_in_days": 1,
        "observations_used": 16,
        "orbit_uncertainty": "8",
        "minimum_orbit_intersection": ".0268962",
        "jupiter_tisserand_invariant": "4.858",
        "epoch_osculation": "2458764.5",
        "eccentricity": ".2690870743319976",
        "semi_major_axis": "1.338953103666831",
        "inclination": "6.064427099054022",
        "ascending_node_longitude": "10.06180854345234",
        "orbital_period": "565.9088376925616",
        "perihelion_distance": ".9786581303333759",
        "perihelion_argument": "312.2932499666779",
        "aphelion_distance": "1.699248077000287",
        "perihelion_time": "2458717.208096256365",
        "mean_anomaly": "30.08450162596282",
        "mean_motion": ".6361448629568413",
        "equinox": "J2000",
        "orbit_class": {
            "orbit_class_type": "APO",
            "orbit_class_description": "Near-Earth asteroid orbits which cross the Earth’s orbit similar to that of 1862 Apollo",
            "orbit_class_range": "a (semi-major axis) > 1.0 AU; q (perihelion) < 1.017 AU"
        }
    },
    "is_sentry_object": false
}